NORAD_CAT_ID,OBJECT_NAME,OBJECT_TYPE,EPOCH,MEAN_MOTION,ECCENTRICITY,INCLINATION,RA_OF_ASC_NODE,ARG_OF_PERICENTER,MEAN_ANOMALY,BSTAR,MEAN_MOTION_DOT,MEAN_MOTION_DDOT,TLE_LINE0,TLE_LINE1,TLE_LINE2,SEMIMAJOR_AXIS,PERIOD,APOGEE,PERIGEE,DECAYED
49145.0,STARLINK-3119,PAYLOAD,2023-06-06 18:38:56,14.98331957,0.000291,70.0002,273.2231,271.3961,88.6865,2.8157e-06,-5.9e-07,0.0,0 STARLINK-3119,1 49145U 21082R   23157.77703809 -.00000059  00000-0  28157-5 0  9998,2 49145  70.0002 273.2231 0002910 271.3961  88.6865 14.98331957 96135,6950.187,96.107,574.074,570.029,0.0
49145.0,STARLINK-3119,PAYLOAD,2023-06-07 09:04:08,14.98331369,0.0002958,70.0004,271.7094,268.6326,91.4494,-1.4489e-05,-2.66e-06,0.0,0 STARLINK-3119,1 49145U 21082R   23158.37787801 -.00000266  00000-0 -14489-4 0  9992,2 49145  70.0004 271.7094 0002958 268.6326  91.4494 14.98331369 96220,6950.189,96.107,574.11,569.998,0.0
49145.0,STARLINK-3119,PAYLOAD,2023-06-07 17:04:48,14.98331471,0.0002845,70.0005,270.8677,267.8347,92.2486,-1.8504e-05,-3.14e-06,0.0,0 STARLINK-3119,1 49145U 21082R   23158.71167787 -.00000314  00000-0 -18504-4 0  9991,2 49145  70.0005 270.8677 0002845 267.8347  92.2486 14.98331471 96276,6950.188,96.107,574.031,570.076,0.0
49145.0,STARLINK-3119,PAYLOAD,2023-06-08 12:18:25,14.98333786,0.000306,69.9993,268.8455,270.5997,89.4812,-3.7024e-05,-5.35e-06,0.0,0 STARLINK-3119,1 49145U 21082R   23159.51279621 -.00000535  00000-0 -37024-4 0  9994,2 49145  69.9993 268.8455 0003060 270.5997  89.4812 14.98333786 96397,6950.181,96.107,574.173,569.919,0.0
49145.0,STARLINK-3119,PAYLOAD,2023-06-08 17:06:49,14.98331978,0.0003142,69.9994,268.3406,268.4055,91.6744,6.6318e-05,6.98e-06,0.0,0 STARLINK-3119,1 49145U 21082R   23159.71307522  .00000698  00000-0  66318-4 0  9994,2 49145  69.9994 268.3406 0003142 268.4055  91.6744 14.98331978 96425,6950.187,96.107,574.236,569.868,0.0
49145.0,STARLINK-3119,PAYLOAD,2023-06-09 13:56:34,14.98332782,0.0003137,69.9998,266.1535,271.1721,88.9079,5.7057e-05,5.88e-06,0.0,0 STARLINK-3119,1 49145U 21082R   23160.58095549  .00000588  00000-0  57057-4 0  9992,2 49145  69.9998 266.1535 0003137 271.1721  88.9079 14.98332782 96551,6950.184,96.107,574.23,569.869,0.0
49145.0,STARLINK-3119,PAYLOAD,2023-06-09 15:32:42,14.98332608,0.0003153,69.9998,265.9852,271.3256,88.7542,5.2515e-05,5.34e-06,0.0,0 STARLINK-3119,1 49145U 21082R   23160.64771568  .00000534  00000-0  52515-4 0  9996,2 49145  69.9998 265.9852 0003153 271.3256  88.7542 14.98332608 96564,6950.185,96.107,574.241,569.858,0.0
49145.0,STARLINK-3119,PAYLOAD,2023-06-09 17:08:50,14.98333281,0.0003148,69.9998,265.8169,271.3208,88.7591,5.9275e-05,6.14e-06,0.0,0 STARLINK-3119,1 49145U 21082R   23160.71447499  .00000614  00000-0  59275-4 0  9996,2 49145  69.9998 265.8169 0003148 271.3208  88.7591 14.98333281 96578,6950.183,96.107,574.236,569.86,0.0
49145.0,STARLINK-3119,PAYLOAD,2023-06-10 13:58:35,14.98332756,0.0003106,69.9999,263.6293,268.5383,91.542,3.9792e-05,3.82e-06,0.0,0 STARLINK-3119,1 49145U 21082R   23161.58235501  .00000382  00000-0  39792-4 0  9995,2 49145  69.9999 263.6293 0003106 268.5383  91.5420 14.98332756 96703,6950.184,96.107,574.208,569.891,0.0
49145.0,STARLINK-3119,PAYLOAD,2023-06-10 15:34:43,14.98333231,0.0003102,70.0,263.461,268.736,91.3444,4.5265e-05,4.47e-06,0.0,0 STARLINK-3119,1 49145U 21082R   23161.64911455  .00000447  00000-0  45265-4 0  9995,2 49145  70.0000 263.4610 0003102 268.7360  91.3444 14.98333231 96717,6950.183,96.107,574.204,569.892,0.0
49145.0,STARLINK-3119,PAYLOAD,2023-06-10 23:35:23,14.9833187,0.0003098,70.0,262.6192,269.6092,90.4712,3.2921e-05,3e-06,0.0,0 STARLINK-3119,1 49145U 21082R   23161.98291522  .00000300  00000-0  32921-4 0  9991,2 49145  70.0000 262.6192 0003098 269.6092  90.4712 14.98331870 96769,6950.187,96.107,574.205,569.899,0.0
49145.0,STARLINK-3119,PAYLOAD,2023-06-11 05:59:56,14.98332725,0.000315,69.9999,261.9456,270.8106,89.2692,3.8284e-05,3.64e-06,0.0,0 STARLINK-3119,1 49145U 21082R   23162.24995440  .00000364  00000-0  38284-4 0  9999,2 49145  69.9999 261.9456 0003150 270.8106  89.2692 14.98332725 96805,6950.184,96.107,574.239,569.86,0.0
49145.0,STARLINK-3119,PAYLOAD,2023-06-11 18:49:00,14.98336562,0.000316,69.9997,260.5988,271.7547,88.3251,6.1082e-05,6.36e-06,0.0,0 STARLINK-3119,1 49145U 21082R   23162.78403003  .00000636  00000-0  61082-4 0  9991,2 49145  69.9997 260.5988 0003160 271.7547  88.3251 14.98336562 96880,6950.173,96.107,574.234,569.841,0.0
49145.0,STARLINK-3119,PAYLOAD,2023-06-12 06:01:57,14.98330974,0.0002972,70.0001,259.4209,268.8667,91.2151,2.2081e-05,1.7e-06,0.0,0 STARLINK-3119,1 49145U 21082R   23163.25135426  .00000170  00000-0  22081-4 0  9994,2 49145  70.0001 259.4209 0002972 268.8667  91.2151 14.98330974 96953,6950.19,96.107,574.12,569.989,0.0
49145.0,STARLINK-3119,PAYLOAD,2023-06-12 12:26:29,14.98330648,0.0003028,70.0001,258.7479,268.7575,91.3237,1.7557e-05,1.16e-06,0.0,0 STARLINK-3119,1 49145U 21082R   23163.51839426  .00000116  00000-0  17557-4 0  9996,2 49145  70.0001 258.7479 0003028 268.7575  91.3237 14.98330648 96992,6950.191,96.107,574.16,569.951,0.0
49145.0,STARLINK-3119,PAYLOAD,2023-06-13 06:03:57,14.98330494,0.0003164,69.9996,256.8961,269.6652,90.4145,1.4949e-05,8.5e-07,0.0,0 STARLINK-3119,1 49145U 21082R   23164.25275407  .00000085  00000-0  14949-4 0  9998,2 49145  69.9996 256.8961 0003164 269.6652  90.4145 14.98330494 97105,6950.191,96.107,574.255,569.857,0.0
49145.0,STARLINK-3119,PAYLOAD,2023-06-13 23:41:26,14.98333101,0.0003234,69.9994,255.0445,271.4773,88.6016,-8.1347e-06,-1.9e-06,0.0,0 STARLINK-3119,1 49145U 21082R   23164.98711243 -.00000190  00000-0 -81347-5 0  9997,2 49145  69.9994 255.0445 0003234 271.4773  88.6016 14.98333101 97210,6950.183,96.107,574.296,569.801,0.0
49145.0,STARLINK-3119,PAYLOAD,2023-06-14 17:18:55,14.98331528,0.0003252,69.9992,253.1921,269.2425,90.8362,5.4628e-05,5.59e-06,0.0,0 STARLINK-3119,1 49145U 21082R   23165.72147134  .00000559  00000-0  54628-4 0  9990,2 49145  69.9992 253.1921 0003252 269.2425  90.8362 14.98331528 97327,6950.188,96.107,574.313,569.793,0.0
49145.0,STARLINK-3119,PAYLOAD,2023-06-14 23:43:27,14.98325793,0.0003063,69.9995,252.5183,270.3187,89.7621,2.5982e-05,2.17e-06,0.0,0 STARLINK-3119,1 49145U 21082R   23165.98851605  .00000217  00000-0  25982-4 0  9995,2 49145  69.9995 252.5183 0003063 270.3187  89.7621 14.98325793 97367,6950.206,96.107,574.2,569.942,0.0
49145.0,STARLINK-3119,PAYLOAD,2023-06-15 12:32:32,14.98330797,0.0003276,69.9993,251.1727,272.0372,88.0411,2.9692e-05,2.61e-06,0.0,0 STARLINK-3119,1 49145U 21082R   23166.52259284  .00000261  00000-0  29692-4 0  9992,2 49145  69.9993 251.1727 0003276 272.0372  88.0411 14.98330797 97443,6950.19,96.107,574.332,569.779,0.0
49145.0,STARLINK-3119,PAYLOAD,2023-06-15 17:20:55,14.9833372,0.0003283,69.9993,250.6677,272.1117,87.9666,6.0025e-05,6.23e-06,0.0,0 STARLINK-3119,1 49145U 21082R   23166.72286999  .00000623  00000-0  60025-4 0  9994,2 49145  69.9993 250.6677 0003283 272.1117  87.9666 14.98333720 97479,6950.181,96.107,574.328,569.765,0.0
49145.0,STARLINK-3119,PAYLOAD,2023-06-16 12:34:32,14.98337675,0.0003213,69.9996,248.6477,272.6174,87.4617,0.00014448,1.632e-05,0.0,0 STARLINK-3119,1 49145U 21082R   23167.52398333  .00001632  00000-0  14448-3 0  9997,2 49145  69.9996 248.6477 0003213 272.6174  87.4617 14.98337675 97595,6950.169,96.107,574.267,569.801,0.0
49145.0,STARLINK-3119,PAYLOAD,2023-06-16 18:59:04,14.9833957,0.0003252,69.9995,247.9745,272.4253,87.6534,0.00015703,1.782e-05,0.0,0 STARLINK-3119,1 49145U 21082R   23167.79102051  .00001782  00000-0  15703-3 0  9997,2 49145  69.9995 247.9745 0003252 272.4253  87.6534 14.98339570 97634,6950.163,96.106,574.288,569.768,0.0
49145.0,STARLINK-3119,PAYLOAD,2023-06-16 22:11:21,14.98326164,0.000327,69.9996,247.638,274.5282,85.5504,6.8494e-06,-1.1e-07,0.0,0 STARLINK-3119,1 49145U 21082R   23167.92455320 -.00000011  00000-0  68494-5 0  9994,2 49145  69.9996 247.6380 0003270 274.5282  85.5504 14.98326164 97653,6950.205,96.107,574.342,569.797,0.0
49145.0,STARLINK-3119,PAYLOAD,2023-06-17 06:12:02,14.98315737,0.0003472,69.9994,246.7964,272.5981,87.478,-0.00013621,-1.717e-05,0.0,0 STARLINK-3119,1 49145U 21082R   23168.25836460 -.00001717  00000-0 -13621-3 0  9994,2 49145  69.9994 246.7964 0003472 272.5981  87.4780 14.98315737 97704,6950.237,96.108,574.515,569.689,0.0
49145.0,STARLINK-3119,PAYLOAD,2023-06-17 07:48:10,14.98316657,0.0003431,69.9994,246.6281,273.043,87.0336,-0.00012204,-1.548e-05,0.0,0 STARLINK-3119,1 49145U 21082R   23168.32512430 -.00001548  00000-0 -12204-3 0  9998,2 49145  69.9994 246.6281 0003431 273.0430  87.0336 14.98316657 97711,6950.234,96.108,574.484,569.715,0.0
49145.0,STARLINK-3119,PAYLOAD,2023-06-17 17:24:58,14.98320965,0.0003352,69.9993,245.6182,273.8002,86.2773,-5.7297e-05,-7.76e-06,0.0,0 STARLINK-3119,1 49145U 21082R   23168.72568275 -.00000776  00000-0 -57297-4 0  9994,2 49145  69.9993 245.6182 0003352 273.8002  86.2773 14.98320965 97773,6950.221,96.108,574.416,569.756,0.0
49145.0,STARLINK-3119,PAYLOAD,2023-06-18 03:01:47,14.98327532,0.0003464,69.9989,244.6081,272.4828,87.5934,1.5474e-05,9.2e-07,0.0,0 STARLINK-3119,1 49145U 21082R   23169.12623851  .00000092  00000-0  15474-4 0  9991,2 49145  69.9989 244.6081 0003464 272.4828  87.5934 14.98327532 97837,6950.201,96.107,574.473,569.658,0.0
49145.0,STARLINK-3119,PAYLOAD,2023-06-18 11:02:27,14.98332851,0.0003502,69.9989,243.7663,272.4503,87.6255,4.352e-06,-4.1e-07,0.0,0 STARLINK-3119,1 49145U 21082R   23169.46003591 -.00000041  00000-0  43520-5 0  9990,2 49145  69.9989 243.7663 0003502 272.4503  87.6255 14.98332851 97888,6950.184,96.107,574.483,569.615,0.0
49145.0,STARLINK-3119,PAYLOAD,2023-06-18 15:50:51,14.98333345,0.0003416,69.9992,243.2615,272.9732,87.1036,2.962e-05,2.6e-06,0.0,0 STARLINK-3119,1 49145U 21082R   23169.66031552  .00000260  00000-0  29620-4 0  9996,2 49145  69.9992 243.2615 0003416 272.9732  87.1036 14.98333345 97912,6950.183,96.107,574.422,569.673,0.0
